start=new Date('2022-04-26T00:00:00.000Z').valueOf();
sats=[{"CENTER_NAME":"EARTH","TIME_SYSTEM":"UTC","MEAN_MOTION_DOT":"0.00000239","DECAY_DATE":null,"TLE_LINE1":"1 46049U 20055Y   22115.81088690  .00000239  00000-0  34979-4 0  9996","OBJECT_NAME":"STARLINK-1530","MEAN_ANOMALY":"290.8749","RCS_SIZE":"LARGE","RA_OF_ASC_NODE":"343.7729","PERIAPSIS":"546.231","TLE_LINE2":"2 46049  53.0563 343.7729 0001448  69.2395 290.8749 15.06393474 95930","GP_ID":"202025426","OBJECT_TYPE":"PAYLOAD","EPHEMERIS_TYPE":"0","MEAN_MOTION":"15.06393474","SITE":"AFETR","FILE":"3416090","CLASSIFICATION_TYPE":"U","APOAPSIS":"548.236","ECCENTRICITY":"0.00014480","ELEMENT_SET_NO":"999","LAUNCH_DATE":"2020-08-07","BSTAR":"0.00003497900000","EPOCH":"2022-04-25T19:27:40.628160","MEAN_MOTION_DDOT":"0.0000000000000","COUNTRY_CODE":"US","MEAN_ELEMENT_THEORY":"SGP4","SEMIMAJOR_AXIS":"6925.369","REV_AT_EPOCH":"9593","NORAD_CAT_ID":"46049","OBJECT_ID":"2020-055Y","REF_FRAME":"TEME","ARG_OF_PERICENTER":"69.2395","INCLINATION":"53.0563","PERIOD":"95.593"},{"CLASSIFICATION_TYPE":"U","FILE":"3416090","SITE":"AFETR","MEAN_MOTION":"15.06387788","APOAPSIS":"548.423","EPHEMERIS_TYPE":"0","OBJECT_TYPE":"PAYLOAD","RCS_SIZE":"LARGE","GP_ID":"202024680","TLE_LINE2":"2 46051  53.0540 344.4928 0001693  89.0996 271.0187 15.06387788 95912","PERIAPSIS":"546.079","RA_OF_ASC_NODE":"344.4928","DECAY_DATE":null,"TIME_SYSTEM":"UTC","MEAN_MOTION_DOT":"0.00000643","CENTER_NAME":"EARTH","OBJECT_NAME":"STARLINK-1540","MEAN_ANOMALY":"271.0187","TLE_LINE1":"1 46051U 20055AA  22115.64870930  .00000643  00000-0  62080-4 0  9999","INCLINATION":"53.0540","ARG_OF_PERICENTER":"89.0996","REF_FRAME":"TEME","PERIOD":"95.593","REV_AT_EPOCH":"9591","SEMIMAJOR_AXIS":"6925.386","OBJECT_ID":"2020-055AA","NORAD_CAT_ID":"46051","MEAN_MOTION_DDOT":"0.0000000000000","MEAN_ELEMENT_THEORY":"SGP4","COUNTRY_CODE":"US","ELEMENT_SET_NO":"999","ECCENTRICITY":"0.00016930","EPOCH":"2022-04-25T15:34:08.483520","LAUNCH_DATE":"2020-08-07","BSTAR":"0.00006208000000"},{"SITE":"AFETR","FILE":"3416090","CLASSIFICATION_TYPE":"U","MEAN_MOTION":"15.06397021","APOAPSIS":"548.143","EPHEMERIS_TYPE":"0","OBJECT_TYPE":"PAYLOAD","RCS_SIZE":"LARGE","TLE_LINE2":"2 46052  53.0556 343.3568 0001329  77.8448 282.2690 15.06397021 95915","GP_ID":"202024930","RA_OF_ASC_NODE":"343.3568","PERIAPSIS":"546.302","DECAY_DATE":null,"CENTER_NAME":"EARTH","TIME_SYSTEM":"UTC","MEAN_MOTION_DOT":"0.00000058","MEAN_ANOMALY":"282.2690","OBJECT_NAME":"STARLINK-1541","TLE_LINE1":"1 46052U 20055AB  22115.89934725  .00000058  00000-0  22787-4 0  9990","REF_FRAME":"TEME","ARG_OF_PERICENTER":"77.8448","INCLINATION":"53.0556","PERIOD":"95.592","REV_AT_EPOCH":"9591","SEMIMAJOR_AXIS":"6925.358","OBJECT_ID":"2020-055AB","NORAD_CAT_ID":"46052","MEAN_MOTION_DDOT":"0.0000000000000","MEAN_ELEMENT_THEORY":"SGP4","COUNTRY_CODE":"US","ELEMENT_SET_NO":"999","ECCENTRICITY":"0.00013290","EPOCH":"2022-04-25T21:35:03.602400","BSTAR":"0.00002278700000","LAUNCH_DATE":"2020-08-07"},{"SEMIMAJOR_AXIS":"6925.380","REV_AT_EPOCH":"9594","NORAD_CAT_ID":"46053","OBJECT_ID":"2020-055AC","INCLINATION":"53.0552","ARG_OF_PERICENTER":"83.5881","REF_FRAME":"TEME","PERIOD":"95.593","ECCENTRICITY":"0.00017140","ELEMENT_SET_NO":"999","BSTAR":"0.00003803500000","LAUNCH_DATE":"2020-08-07","EPOCH":"2022-04-25T21:40:22.668096","MEAN_MOTION_DDOT":"0.0000000000000","COUNTRY_CODE":"US","MEAN_ELEMENT_THEORY":"SGP4","OBJECT_TYPE":"PAYLOAD","EPHEMERIS_TYPE":"0","MEAN_MOTION":"15.06389683","CLASSIFICATION_TYPE":"U","FILE":"3416090","SITE":"AFETR","APOAPSIS":"548.432","MEAN_MOTION_DOT":"0.00000285","TIME_SYSTEM":"UTC","CENTER_NAME":"EARTH","DECAY_DATE":null,"TLE_LINE1":"1 46053U 20055AC  22115.90304014  .00000285  00000-0  38035-4 0  9990","MEAN_ANOMALY":"276.5303","OBJECT_NAME":"STARLINK-1543","RCS_SIZE":"LARGE","PERIAPSIS":"546.058","RA_OF_ASC_NODE":"343.3458","TLE_LINE2":"2 46053  53.0552 343.3458 0001714  83.5881 276.5303 15.06389683 95948","GP_ID":"202025677"},{"MEAN_MOTION_DOT":"-0.00000675","TIME_SYSTEM":"UTC","CENTER_NAME":"EARTH","DECAY_DATE":null,"TLE_LINE1":"1 46054U 20055AD  22115.91041284 -.00000675  00000-0 -26422-4 0  9991","OBJECT_NAME":"STARLINK-1548","MEAN_ANOMALY":"290.7422","RCS_SIZE":"LARGE","PERIAPSIS":"546.117","RA_OF_ASC_NODE":"343.3201","TLE_LINE2":"2 46054  53.0553 343.3201 0001623  69.3741 290.7422 15.06391113 95943","GP_ID":"202025927","OBJECT_TYPE":"PAYLOAD","EPHEMERIS_TYPE":"0","MEAN_MOTION":"15.06391113","CLASSIFICATION_TYPE":"U","FILE":"3416090","SITE":"AFETR","APOAPSIS":"548.365","ECCENTRICITY":"0.00016230","ELEMENT_SET_NO":"999","BSTAR":"-0.00002642200000","LAUNCH_DATE":"2020-08-07","EPOCH":"2022-04-25T21:50:59.669376","MEAN_MOTION_DDOT":"0.0000000000000","COUNTRY_CODE":"US","MEAN_ELEMENT_THEORY":"SGP4","SEMIMAJOR_AXIS":"6925.376","REV_AT_EPOCH":"9594","NORAD_CAT_ID":"46054","OBJECT_ID":"2020-055AD","ARG_OF_PERICENTER":"69.3741","INCLINATION":"53.0553","REF_FRAME":"TEME","PERIOD":"95.593"},{"PERIOD":"95.593","INCLINATION":"53.0549","ARG_OF_PERICENTER":"81.6259","REF_FRAME":"TEME","OBJECT_ID":"2020-055AE","NORAD_CAT_ID":"46055","REV_AT_EPOCH":"9594","SEMIMAJOR_AXIS":"6925.371","MEAN_ELEMENT_THEORY":"SGP4","COUNTRY_CODE":"US","MEAN_MOTION_DDOT":"0.0000000000000","EPOCH":"2022-04-25T21:29:45.436128","BSTAR":"0.00013012000000","LAUNCH_DATE":"2020-08-07","ELEMENT_SET_NO":"999","ECCENTRICITY":"0.00015730","APOAPSIS":"548.325","CLASSIFICATION_TYPE":"U","SITE":"AFETR","FILE":"3416090","MEAN_MOTION":"15.06392690","EPHEMERIS_TYPE":"0","OBJECT_TYPE":"PAYLOAD","GP_ID":"202024180","TLE_LINE2":"2 46055  53.0549 343.3999 0001573  81.6259 278.4908 15.06392690 95941","PERIAPSIS":"546.147","RA_OF_ASC_NODE":"343.3999","RCS_SIZE":"LARGE","MEAN_ANOMALY":"278.4908","OBJECT_NAME":"STARLINK-1554","TLE_LINE1":"1 46055U 20055AE  22115.89566477  .00001657  00000-0  13012-3 0  9994","DECAY_DATE":null,"TIME_SYSTEM":"UTC","MEAN_MOTION_DOT":"0.00001657","CENTER_NAME":"EARTH"},{"MEAN_MOTION_DDOT":"0.0000000000000","MEAN_ELEMENT_THEORY":"SGP4","COUNTRY_CODE":"US","ELEMENT_SET_NO":"999","ECCENTRICITY":"0.00017780","EPOCH":"2022-04-25T20:26:03.629760","LAUNCH_DATE":"2020-08-07","BSTAR":"0.00005696300000","REF_FRAME":"TEME","INCLINATION":"53.0559","ARG_OF_PERICENTER":"64.6906","PERIOD":"95.593","REV_AT_EPOCH":"9594","SEMIMAJOR_AXIS":"6925.369","OBJECT_ID":"2020-055AF","NORAD_CAT_ID":"46056","RCS_SIZE":"LARGE","TLE_LINE2":"2 46056  53.0559 343.5844 0001778  64.6906 295.4267 15.06393183 95946","GP_ID":"202024430","RA_OF_ASC_NODE":"343.5844","PERIAPSIS":"546.003","DECAY_DATE":null,"CENTER_NAME":"EARTH","TIME_SYSTEM":"UTC","MEAN_MOTION_DOT":"0.00000567","OBJECT_NAME":"STARLINK-1561","MEAN_ANOMALY":"295.4267","TLE_LINE1":"1 46056U 20055AF  22115.85143090  .00000567  00000-0  56963-4 0  9995","FILE":"3416090","SITE":"AFETR","CLASSIFICATION_TYPE":"U","MEAN_MOTION":"15.06393183","APOAPSIS":"548.466","EPHEMERIS_TYPE":"0","OBJECT_TYPE":"PAYLOAD"},{"APOAPSIS":"548.313","CLASSIFICATION_TYPE":"U","SITE":"AFETR","FILE":"3416090","MEAN_MOTION":"15.06391362","EPHEMERIS_TYPE":"0","OBJECT_TYPE":"PAYLOAD","GP_ID":"202025177","TLE_LINE2":"2 46058  53.0564 343.8253 0001549  85.4719 274.6447 15.06391362 95924","PERIAPSIS":"546.167","RA_OF_ASC_NODE":"343.8253","RCS_SIZE":"LARGE","MEAN_ANOMALY":"274.6447","OBJECT_NAME":"STARLINK-1564","TLE_LINE1":"1 46058U 20055AH  22115.79614337 -.00000236  00000-0  30477-5 0  9994","DECAY_DATE":null,"TIME_SYSTEM":"UTC","MEAN_MOTION_DOT":"-0.00000236","CENTER_NAME":"EARTH","PERIOD":"95.593","INCLINATION":"53.0564","ARG_OF_PERICENTER":"85.4719","REF_FRAME":"TEME","OBJECT_ID":"2020-055AH","NORAD_CAT_ID":"46058","REV_AT_EPOCH":"9592","SEMIMAJOR_AXIS":"6925.375","MEAN_ELEMENT_THEORY":"SGP4","COUNTRY_CODE":"US","MEAN_MOTION_DDOT":"0.0000000000000","EPOCH":"2022-04-25T19:06:26.787168","BSTAR":"0.00000304770000","LAUNCH_DATE":"2020-08-07","ELEMENT_SET_NO":"999","ECCENTRICITY":"0.00015490"},{"COUNTRY_CODE":"US","MEAN_ELEMENT_THEORY":"SGP4","MEAN_MOTION_DDOT":"0.0000000000000","BSTAR":"-0.00026558000000","LAUNCH_DATE":"2020-08-07","EPOCH":"2022-04-25T17:41:31.424064","ECCENTRICITY":"0.00014420","ELEMENT_SET_NO":"999","PERIOD":"95.593","REF_FRAME":"TEME","ARG_OF_PERICENTER":"83.2345","INCLINATION":"53.0569","NORAD_CAT_ID":"46059","OBJECT_ID":"2020-055AJ","SEMIMAJOR_AXIS":"6925.402","REV_AT_EPOCH":"9587","RA_OF_ASC_NODE":"344.0938","PERIAPSIS":"546.269","TLE_LINE2":"2 46059  53.0569 344.0938 0001442  83.2345 276.8808 15.06382416 95875","GP_ID":"202025427","RCS_SIZE":"LARGE","TLE_LINE1":"1 46059U 20055AJ  22115.73716926 -.00004233  00000-0 -26558-3 0  9991","OBJECT_NAME":"STARLINK-1570","MEAN_ANOMALY":"276.8808","CENTER_NAME":"EARTH","TIME_SYSTEM":"UTC","MEAN_MOTION_DOT":"-0.00004233","DECAY_DATE":null,"APOAPSIS":"548.266","MEAN_MOTION":"15.06382416","FILE":"3416090","SITE":"AFETR","CLASSIFICATION_TYPE":"U","OBJECT_TYPE":"PAYLOAD","EPHEMERIS_TYPE":"0"},{"MEAN_MOTION_DDOT":"0.0000000000000","COUNTRY_CODE":"US","MEAN_ELEMENT_THEORY":"SGP4","ECCENTRICITY":"0.00016310","ELEMENT_SET_NO":"999","BSTAR":"-0.00000722810000","LAUNCH_DATE":"2020-08-07","EPOCH":"2022-04-25T20:47:17.474208","REF_FRAME":"TEME","ARG_OF_PERICENTER":"72.8741","INCLINATION":"53.0557","PERIOD":"95.593","SEMIMAJOR_AXIS":"6925.368","REV_AT_EPOCH":"9590","NORAD_CAT_ID":"46060","OBJECT_ID":"2020-055AK","RCS_SIZE":"LARGE","RA_OF_ASC_NODE":"343.5186","PERIAPSIS":"546.103","GP_ID":"202024681","TLE_LINE2":"2 46060  53.0557 343.5186 0001631  72.8741 287.2427 15.06393773 95902","CENTER_NAME":"EARTH","TIME_SYSTEM":"UTC","MEAN_MOTION_DOT":"-0.00000389","DECAY_DATE":null,"TLE_LINE1":"1 46060U 20055AK  22115.86617447 -.00000389  00000-0 -72281-5 0  9999","OBJECT_NAME":"STARLINK-1572","MEAN_ANOMALY":"287.2427","MEAN_MOTION":"15.06393773","FILE":"3416090","SITE":"AFETR","CLASSIFICATION_TYPE":"U","APOAPSIS":"548.362","OBJECT_TYPE":"PAYLOAD","EPHEMERIS_TYPE":"0"}];
